[{"OBJECT_NAME":"STARLINK-33834","OBJECT_ID":"2025-076T","EPOCH":"2026-03-14T21:05:14.483904","MEAN_MOTION":15.27602646,"ECCENTRICITY":0.00011842,"INCLINATION":43.0009,"RA_OF_ASC_NODE":292.4201,"ARG_OF_PERICENTER":257.6193,"MEAN_ANOMALY":102.4526,"EPHEMERIS_TYPE":0,"CLASSIFICATION_TYPE":"U","NORAD_CAT_ID":63586,"ELEMENT_SET_NO":999,"REV_AT_EPOCH":5262,"BSTAR":0.0010067897,"MEAN_MOTION_DOT":0.00027565,"MEAN_MOTION_DDOT":0},{"OBJECT_NAME":"STARLINK-33830","OBJECT_ID":"2025-076U","EPOCH":"2026-03-14T21:01:32.481696","MEAN_MOTION":15.27594424,"ECCENTRICITY":0.00017806,"INCLINATION":43.0003,"RA_OF_ASC_NODE":292.4007,"ARG_OF_PERICENTER":267.5032,"MEAN_ANOMALY":92.5616,"EPHEMERIS_TYPE":0,"CLASSIFICATION_TYPE":"U","NORAD_CAT_ID":63587,"ELEMENT_SET_NO":999,"REV_AT_EPOCH":5262,"BSTAR":0.0013352921,"MEAN_MOTION_DOT":0.00036682,"MEAN_MOTION_DDOT":0},{"OBJECT_NAME":"STARLINK-33651","OBJECT_ID":"2025-076V","EPOCH":"2026-03-14T21:03:23.256864","MEAN_MOTION":15.27576158,"ECCENTRICITY":0.00010554,"INCLINATION":42.9996,"RA_OF_ASC_NODE":292.4108,"ARG_OF_PERICENTER":247.7787,"MEAN_ANOMALY":112.2953,"EPHEMERIS_TYPE":0,"CLASSIFICATION_TYPE":"U","NORAD_CAT_ID":63588,"ELEMENT_SET_NO":999,"REV_AT_EPOCH":5262,"BSTAR":0.001024009,"MEAN_MOTION_DOT":0.0002802,"MEAN_MOTION_DDOT":0},{"OBJECT_NAME":"STARLINK-33788","OBJECT_ID":"2025-076W","EPOCH":"2026-03-14T21:27:26.369280","MEAN_MOTION":15.27599303,"ECCENTRICITY":7.495e-5,"INCLINATION":42.9951,"RA_OF_ASC_NODE":292.5345,"ARG_OF_PERICENTER":131.2342,"MEAN_ANOMALY":228.8574,"EPHEMERIS_TYPE":0,"CLASSIFICATION_TYPE":"U","NORAD_CAT_ID":63589,"ELEMENT_SET_NO":999,"REV_AT_EPOCH":5262,"BSTAR":0.00098905495,"MEAN_MOTION_DOT":0.00027071,"MEAN_MOTION_DDOT":0},{"OBJECT_NAME":"STARLINK-33805","OBJECT_ID":"2025-076X","EPOCH":"2026-03-14T21:42:14.245056","MEAN_MOTION":15.27598291,"ECCENTRICITY":0.00012864,"INCLINATION":42.9959,"RA_OF_ASC_NODE":292.599,"ARG_OF_PERICENTER":272.9759,"MEAN_ANOMALY":87.0946,"EPHEMERIS_TYPE":0,"CLASSIFICATION_TYPE":"U","NORAD_CAT_ID":63590,"ELEMENT_SET_NO":999,"REV_AT_EPOCH":5262,"BSTAR":0.00093420533,"MEAN_MOTION_DOT":0.00025549,"MEAN_MOTION_DDOT":0},{"OBJECT_NAME":"STARLINK-33702","OBJECT_ID":"2025-076Y","EPOCH":"2026-03-14T15:53:08.100384","MEAN_MOTION":15.27654927,"ECCENTRICITY":0.00025059,"INCLINATION":43.0017,"RA_OF_ASC_NODE":293.3668,"ARG_OF_PERICENTER":255.6721,"MEAN_ANOMALY":104.3852,"EPHEMERIS_TYPE":0,"CLASSIFICATION_TYPE":"U","NORAD_CAT_ID":63591,"ELEMENT_SET_NO":999,"REV_AT_EPOCH":5259,"BSTAR":0.0014732772,"MEAN_MOTION_DOT":0.00040598,"MEAN_MOTION_DDOT":0},{"OBJECT_NAME":"STARLINK-33666","OBJECT_ID":"2025-076Z","EPOCH":"2026-03-14T21:20:02.074560","MEAN_MOTION":15.27618597,"ECCENTRICITY":8.17e-5,"INCLINATION":42.9985,"RA_OF_ASC_NODE":292.4937,"ARG_OF_PERICENTER":228.3974,"MEAN_ANOMALY":131.6808,"EPHEMERIS_TYPE":0,"CLASSIFICATION_TYPE":"U","NORAD_CAT_ID":63592,"ELEMENT_SET_NO":999,"REV_AT_EPOCH":5262,"BSTAR":0.0012100852,"MEAN_MOTION_DOT":0.00033226,"MEAN_MOTION_DDOT":0},{"OBJECT_NAME":"STARLINK-33723","OBJECT_ID":"2025-076AA","EPOCH":"2026-03-14T16:02:24.583776","MEAN_MOTION":15.27623998,"ECCENTRICITY":0.00012209,"INCLINATION":42.9991,"RA_OF_ASC_NODE":293.4121,"ARG_OF_PERICENTER":227.0772,"MEAN_ANOMALY":132.9977,"EPHEMERIS_TYPE":0,"CLASSIFICATION_TYPE":"U","NORAD_CAT_ID":63593,"ELEMENT_SET_NO":999,"REV_AT_EPOCH":5259,"BSTAR":0.0010822516,"MEAN_MOTION_DOT":0.00029679,"MEAN_MOTION_DDOT":0},{"OBJECT_NAME":"STARLINK-33791","OBJECT_ID":"2025-076AB","EPOCH":"2026-03-14T21:23:44.095776","MEAN_MOTION":15.27589248,"ECCENTRICITY":0.00029792,"INCLINATION":43.0041,"RA_OF_ASC_NODE":292.512,"ARG_OF_PERICENTER":269.648,"MEAN_ANOMALY":90.403,"EPHEMERIS_TYPE":0,"CLASSIFICATION_TYPE":"U","NORAD_CAT_ID":63594,"ELEMENT_SET_NO":999,"REV_AT_EPOCH":5262,"BSTAR":0.0011281954,"MEAN_MOTION_DOT":0.00030924,"MEAN_MOTION_DDOT":0},{"OBJECT_NAME":"STARLINK-33831","OBJECT_ID":"2025-076AC","EPOCH":"2026-03-14T20:50:25.239552","MEAN_MOTION":15.27585055,"ECCENTRICITY":5.197e-5,"INCLINATION":42.9973,"RA_OF_ASC_NODE":292.277,"ARG_OF_PERICENTER":188.8623,"MEAN_ANOMALY":171.222,"EPHEMERIS_TYPE":0,"CLASSIFICATION_TYPE":"U","NORAD_CAT_ID":63595,"ELEMENT_SET_NO":999,"REV_AT_EPOCH":5262,"BSTAR":0.0011462972,"MEAN_MOTION_DOT":0.00031421,"MEAN_MOTION_DDOT":0},{"OBJECT_NAME":"STARLINK-33879","OBJECT_ID":"2025-083A","EPOCH":"2026-03-14T19:04:50.092608","MEAN_MOTION":15.27623468,"ECCENTRICITY":0.00023963,"INCLINATION":43.0035,"RA_OF_ASC_NODE":336.727,"ARG_OF_PERICENTER":275.113,"MEAN_ANOMALY":84.9449,"EPHEMERIS_TYPE":0,"CLASSIFICATION_TYPE":"U","NORAD_CAT_ID":63634,"ELEMENT_SET_NO":999,"REV_AT_EPOCH":5084,"BSTAR":0.0018337897,"MEAN_MOTION_DOT":0.00050616,"MEAN_MOTION_DDOT":0},{"OBJECT_NAME":"STARLINK-33854","OBJECT_ID":"2025-083B","EPOCH":"2026-03-14T18:03:46.605600","MEAN_MOTION":15.2760731,"ECCENTRICITY":0.00011481,"INCLINATION":43.0012,"RA_OF_ASC_NODE":336.4125,"ARG_OF_PERICENTER":279.4689,"MEAN_ANOMALY":80.6033,"EPHEMERIS_TYPE":0,"CLASSIFICATION_TYPE":"U","NORAD_CAT_ID":63635,"ELEMENT_SET_NO":999,"REV_AT_EPOCH":5084,"BSTAR":0.0012868047,"MEAN_MOTION_DOT":0.00035347,"MEAN_MOTION_DDOT":0},{"OBJECT_NAME":"STARLINK-33864","OBJECT_ID":"2025-083C","EPOCH":"2026-03-14T17:36:14.369760","MEAN_MOTION":15.27612721,"ECCENTRICITY":0.00031541,"INCLINATION":43.0021,"RA_OF_ASC_NODE":337.1257,"ARG_OF_PERICENTER":276.2572,"MEAN_ANOMALY":83.792,"EPHEMERIS_TYPE":0,"CLASSIFICATION_TYPE":"U","NORAD_CAT_ID":63636,"ELEMENT_SET_NO":999,"REV_AT_EPOCH":5086,"BSTAR":0.0013676623,"MEAN_MOTION_DOT":0.00037606,"MEAN_MOTION_DDOT":0},{"OBJECT_NAME":"STARLINK-33832","OBJECT_ID":"2025-083D","EPOCH":"2026-03-14T17:52:40.371744","MEAN_MOTION":15.27603159,"ECCENTRICITY":0.00012782,"INCLINATION":42.9976,"RA_OF_ASC_NODE":336.3507,"ARG_OF_PERICENTER":269.8715,"MEAN_ANOMALY":90.199,"EPHEMERIS_TYPE":0,"CLASSIFICATION_TYPE":"U","NORAD_CAT_ID":63637,"ELEMENT_SET_NO":999,"REV_AT_EPOCH":5084,"BSTAR":0.001172478,"MEAN_MOTION_DOT":0.00032166,"MEAN_MOTION_DDOT":0},{"OBJECT_NAME":"STARLINK-33856","OBJECT_ID":"2025-083E","EPOCH":"2026-03-14T18:07:28.590528","MEAN_MOTION":15.27617607,"ECCENTRICITY":0.00033098,"INCLINATION":43.0014,"RA_OF_ASC_NODE":336.4212,"ARG_OF_PERICENTER":287.3941,"MEAN_ANOMALY":72.6548,"EPHEMERIS_TYPE":0,"CLASSIFICATION_TYPE":"U","NORAD_CAT_ID":63638,"ELEMENT_SET_NO":999,"REV_AT_EPOCH":5084,"BSTAR":0.0018620205,"MEAN_MOTION_DOT":0.00051398,"MEAN_MOTION_DDOT":0},{"OBJECT_NAME":"STARLINK-33876","OBJECT_ID":"2025-083F","EPOCH":"2026-03-14T18:29:40.423200","MEAN_MOTION":15.27614397,"ECCENTRICITY":0.00011889,"INCLINATION":42.9992,"RA_OF_ASC_NODE":336.5334,"ARG_OF_PERICENTER":273.2023,"MEAN_ANOMALY":86.8693,"EPHEMERIS_TYPE":0,"CLASSIFICATION_TYPE":"U","NORAD_CAT_ID":63639,"ELEMENT_SET_NO":999,"REV_AT_EPOCH":5084,"BSTAR":0.0013510793,"MEAN_MOTION_DOT":0.00037143,"MEAN_MOTION_DDOT":0}]
