STARLINK-33834          
1 63586U 25076T   26073.87863986  .00027565  00000+0  10068-2 0  9992
2 63586  43.0009 292.4201 0001184 257.6193 102.4526 15.27602646 52627
STARLINK-33830          
1 63587U 25076U   26073.87607039  .00036682  00000+0  13353-2 0  9998
2 63587  43.0003 292.4007 0001780 267.5032  92.5616 15.27594424 52623
STARLINK-33651          
1 63588U 25076V   26073.87735251  .00028020  00000+0  10240-2 0  9996
2 63588  42.9996 292.4108 0001055 247.7787 112.2953 15.27576158 52625
STARLINK-33788          
1 63589U 25076W   26073.89405520  .00027071  00000+0  98905-3 0  9992
2 63589  42.9951 292.5345 0000749 131.2342 228.8574 15.27599303 52624
STARLINK-33805          
1 63590U 25076X   26073.90433154  .00025549  00000+0  93421-3 0  9996
2 63590  42.9959 292.5990 0001286 272.9759  87.0946 15.27598291 52625
STARLINK-33702          
1 63591U 25076Y   26073.66189931  .00040598  00000+0  14733-2 0  9990
2 63591  43.0017 293.3668 0002505 255.6721 104.3852 15.27654927 52590
STARLINK-33666          
1 63592U 25076Z   26073.88891290  .00033226  00000+0  12101-2 0  9990
2 63592  42.9985 292.4937 0000817 228.3974 131.6808 15.27618597 52624
STARLINK-33723          
1 63593U 25076AA  26073.66834009  .00029679  00000+0  10823-2 0  9998
2 63593  42.9991 293.4121 0001220 227.0772 132.9977 15.27623998 52597
STARLINK-33791          
1 63594U 25076AB  26073.89148259  .00030924  00000+0  11282-2 0  9994
2 63594  43.0041 292.5120 0002979 269.6480  90.4030 15.27589248 52626
STARLINK-33831          
1 63595U 25076AC  26073.86834768  .00031421  00000+0  11463-2 0  9993
2 63595  42.9973 292.2770 0000519 188.8623 171.2220 15.27585055 52627
STARLINK-33879          
1 63634U 25083A   26073.79502422  .00050616  00000+0  18338-2 0  9991
2 63634  43.0035 336.7270 0002396 275.1130  84.9449 15.27623468 50845
STARLINK-33854          
1 63635U 25083B   26073.75262275  .00035347  00000+0  12868-2 0  9993
2 63635  43.0012 336.4125 0001148 279.4689  80.6033 15.27607310 50847
STARLINK-33864          
1 63636U 25083C   26073.73349965  .00037606  00000+0  13677-2 0  9993
2 63636  43.0021 337.1257 0003154 276.2572  83.7920 15.27612721 50860
STARLINK-33832          
1 63637U 25083D   26073.74491171  .00032166  00000+0  11725-2 0  9990
2 63637  42.9976 336.3507 0001278 269.8715  90.1990 15.27603159 50841
STARLINK-33856          
1 63638U 25083E   26073.75519202  .00051398  00000+0  18620-2 0  9997
2 63638  43.0014 336.4212 0003309 287.3941  72.6548 15.27617607 50841
STARLINK-33876          
1 63639U 25083F   26073.77060675  .00037143  00000+0  13511-2 0  9991
2 63639  42.9992 336.5334 0001188 273.2023  86.8693 15.27614397 50840
